start=new Date('2022-05-19T00:00:00.000Z').valueOf();
sats=[{"MEAN_ELEMENT_THEORY":"SGP4","TLE_LINE2":"2 52338  53.2176 342.1449 0001209  71.0058  59.5733 15.68847912  1304","OBJECT_TYPE":"PAYLOAD","SITE":"AFETR","TLE_LINE1":"1 52338U 22045H   22138.91667824 -.00717491  00000-0 -66827-2 0  9995","EPOCH":"2022-05-18T22:00:00.999936","DECAY_DATE":null,"PERIAPSIS":"361.382","APOAPSIS":"363.012","REF_FRAME":"TEME","MEAN_MOTION_DOT":"-0.00717491","EPHEMERIS_TYPE":"0","FILE":"3452356","REV_AT_EPOCH":"130","RA_OF_ASC_NODE":"342.1449","GP_ID":"203908173","OBJECT_ID":"2022-045H","LAUNCH_DATE":"2022-04-29","OBJECT_NAME":"STARLINK-3815","MEAN_MOTION_DDOT":"0.0000000000000","BSTAR":"-0.00668270000000","TIME_SYSTEM":"UTC","ELEMENT_SET_NO":"999","INCLINATION":"53.2176","ARG_OF_PERICENTER":"71.0058","SEMIMAJOR_AXIS":"6740.332","MEAN_MOTION":"15.68847912","MEAN_ANOMALY":"59.5733","ECCENTRICITY":"0.00012090","COUNTRY_CODE":"US","CLASSIFICATION_TYPE":"U","CENTER_NAME":"EARTH","PERIOD":"91.787","RCS_SIZE":"LARGE","NORAD_CAT_ID":"52338"},{"MEAN_MOTION_DOT":"-0.00717530","REF_FRAME":"TEME","FILE":"3452356","EPHEMERIS_TYPE":"0","RA_OF_ASC_NODE":"342.1435","GP_ID":"203908271","REV_AT_EPOCH":"130","OBJECT_ID":"2022-045J","LAUNCH_DATE":"2022-04-29","TLE_LINE2":"2 52339  53.2176 342.1435 0001197  73.6112  56.3258 15.68843301  1300","MEAN_ELEMENT_THEORY":"SGP4","OBJECT_TYPE":"PAYLOAD","SITE":"AFETR","TLE_LINE1":"1 52339U 22045J   22138.91667824 -.00717530  00000-0 -66844-2 0  9999","EPOCH":"2022-05-18T22:00:00.999936","DECAY_DATE":null,"PERIAPSIS":"361.403","APOAPSIS":"363.017","ECCENTRICITY":"0.00011970","MEAN_ANOMALY":"56.3258","CLASSIFICATION_TYPE":"U","COUNTRY_CODE":"US","CENTER_NAME":"EARTH","PERIOD":"91.787","NORAD_CAT_ID":"52339","RCS_SIZE":"LARGE","OBJECT_NAME":"STARLINK-3792","MEAN_MOTION_DDOT":"0.0000000000000","BSTAR":"-0.00668440000000","ARG_OF_PERICENTER":"73.6112","ELEMENT_SET_NO":"999","INCLINATION":"53.2176","TIME_SYSTEM":"UTC","MEAN_MOTION":"15.68843301","SEMIMAJOR_AXIS":"6740.345"},{"MEAN_MOTION_DDOT":"0.0000000000000","BSTAR":"-0.00044883000000","OBJECT_NAME":"STARLINK-3818","MEAN_MOTION":"15.73208499","SEMIMAJOR_AXIS":"6727.871","ELEMENT_SET_NO":"999","INCLINATION":"53.2149","ARG_OF_PERICENTER":"84.9436","TIME_SYSTEM":"UTC","CLASSIFICATION_TYPE":"U","COUNTRY_CODE":"US","CENTER_NAME":"EARTH","PERIOD":"91.533","ECCENTRICITY":"0.00012120","MEAN_ANOMALY":"70.1012","NORAD_CAT_ID":"52340","RCS_SIZE":"LARGE","OBJECT_TYPE":"PAYLOAD","TLE_LINE2":"2 52340  53.2149 342.0918 0001212  84.9436  70.1012 15.73208499  1300","MEAN_ELEMENT_THEORY":"SGP4","PERIAPSIS":"348.921","DECAY_DATE":null,"APOAPSIS":"350.551","SITE":"AFETR","TLE_LINE1":"1 52340U 22045K   22138.91667824 -.00063161  00000-0 -44883-3 0  9995","EPOCH":"2022-05-18T22:00:00.999936","REF_FRAME":"TEME","MEAN_MOTION_DOT":"-0.00063161","FILE":"3452356","EPHEMERIS_TYPE":"0","OBJECT_ID":"2022-045K","LAUNCH_DATE":"2022-04-29","GP_ID":"203908076","RA_OF_ASC_NODE":"342.0918","REV_AT_EPOCH":"130"},{"MEAN_MOTION_DDOT":"0.0000000000000","BSTAR":"-0.00668690000000","OBJECT_NAME":"STARLINK-3843","MEAN_MOTION":"15.68838713","SEMIMAJOR_AXIS":"6740.358","INCLINATION":"53.2176","ELEMENT_SET_NO":"999","ARG_OF_PERICENTER":"85.4847","TIME_SYSTEM":"UTC","CLASSIFICATION_TYPE":"U","COUNTRY_CODE":"US","PERIOD":"91.788","CENTER_NAME":"EARTH","ECCENTRICITY":"0.00011670","MEAN_ANOMALY":"43.8102","NORAD_CAT_ID":"52341","RCS_SIZE":"LARGE","OBJECT_TYPE":"PAYLOAD","TLE_LINE2":"2 52341  53.2176 342.1417 0001167  85.4847  43.8102 15.68838713  1306","MEAN_ELEMENT_THEORY":"SGP4","PERIAPSIS":"361.437","DECAY_DATE":null,"APOAPSIS":"363.010","SITE":"AFETR","TLE_LINE1":"1 52341U 22045L   22138.91667824 -.00717645  00000-0 -66869-2 0  9996","EPOCH":"2022-05-18T22:00:00.999936","MEAN_MOTION_DOT":"-0.00717645","REF_FRAME":"TEME","FILE":"3452356","EPHEMERIS_TYPE":"0","OBJECT_ID":"2022-045L","LAUNCH_DATE":"2022-04-29","GP_ID":"203908703","RA_OF_ASC_NODE":"342.1417","REV_AT_EPOCH":"130"},{"MEAN_MOTION":"15.73197434","SEMIMAJOR_AXIS":"6727.902","ELEMENT_SET_NO":"999","ARG_OF_PERICENTER":"81.9970","INCLINATION":"53.2148","TIME_SYSTEM":"UTC","BSTAR":"-0.00067827000000","MEAN_MOTION_DDOT":"0.0000000000000","OBJECT_NAME":"STARLINK-3850","NORAD_CAT_ID":"52342","RCS_SIZE":"LARGE","CENTER_NAME":"EARTH","PERIOD":"91.533","CLASSIFICATION_TYPE":"U","COUNTRY_CODE":"US","ECCENTRICITY":"0.00013080","MEAN_ANOMALY":"74.2364","APOAPSIS":"350.647","PERIAPSIS":"348.887","DECAY_DATE":null,"EPOCH":"2022-05-18T22:00:00.999936","TLE_LINE1":"1 52342U 22045M   22138.91667824 -.00094735  00000-0 -67827-3 0  9991","SITE":"AFETR","OBJECT_TYPE":"PAYLOAD","MEAN_ELEMENT_THEORY":"SGP4","TLE_LINE2":"2 52342  53.2148 342.0889 0001308  81.9970  74.2364 15.73197434  1305","LAUNCH_DATE":"2022-04-29","OBJECT_ID":"2022-045M","GP_ID":"203908508","RA_OF_ASC_NODE":"342.0889","REV_AT_EPOCH":"130","EPHEMERIS_TYPE":"0","FILE":"3452356","REF_FRAME":"TEME","MEAN_MOTION_DOT":"-0.00094735"},{"PERIAPSIS":"361.382","DECAY_DATE":null,"APOAPSIS":"362.979","SITE":"AFETR","TLE_LINE1":"1 52343U 22045N   22138.91667824 -.00717572  00000-0 -66820-2 0  9994","EPOCH":"2022-05-18T22:00:00.999936","OBJECT_TYPE":"PAYLOAD","MEAN_ELEMENT_THEORY":"SGP4","TLE_LINE2":"2 52343  53.2176 342.1655 0001185  75.3954  55.8244 15.68853581  1309","OBJECT_ID":"2022-045N","LAUNCH_DATE":"2022-04-29","REV_AT_EPOCH":"130","RA_OF_ASC_NODE":"342.1655","GP_ID":"203908605","MEAN_MOTION_DOT":"-0.00717572","REF_FRAME":"TEME","EPHEMERIS_TYPE":"0","FILE":"3452356","SEMIMAJOR_AXIS":"6740.316","MEAN_MOTION":"15.68853581","TIME_SYSTEM":"UTC","INCLINATION":"53.2176","ELEMENT_SET_NO":"999","ARG_OF_PERICENTER":"75.3954","MEAN_MOTION_DDOT":"0.0000000000000","BSTAR":"-0.00668200000000","OBJECT_NAME":"STARLINK-3849","RCS_SIZE":"LARGE","NORAD_CAT_ID":"52343","COUNTRY_CODE":"US","CLASSIFICATION_TYPE":"U","PERIOD":"91.787","CENTER_NAME":"EARTH","MEAN_ANOMALY":"55.8244","ECCENTRICITY":"0.00011850"},{"NORAD_CAT_ID":"52344","RCS_SIZE":"LARGE","ECCENTRICITY":"0.00010670","MEAN_ANOMALY":"73.2767","CENTER_NAME":"EARTH","PERIOD":"91.533","CLASSIFICATION_TYPE":"U","COUNTRY_CODE":"US","ELEMENT_SET_NO":"999","ARG_OF_PERICENTER":"84.1717","INCLINATION":"53.2148","TIME_SYSTEM":"UTC","MEAN_MOTION":"15.73197768","SEMIMAJOR_AXIS":"6727.902","OBJECT_NAME":"STARLINK-3851","BSTAR":"-0.00046596000000","MEAN_MOTION_DDOT":"0.0000000000000","RA_OF_ASC_NODE":"342.0867","GP_ID":"203908411","REV_AT_EPOCH":"130","LAUNCH_DATE":"2022-04-29","OBJECT_ID":"2022-045P","EPHEMERIS_TYPE":"0","FILE":"3452356","MEAN_MOTION_DOT":"-0.00065499","REF_FRAME":"TEME","TLE_LINE1":"1 52344U 22045P   22138.91667824 -.00065499  00000-0 -46596-3 0  9998","EPOCH":"2022-05-18T22:00:00.999936","SITE":"AFETR","APOAPSIS":"350.484","PERIAPSIS":"349.049","DECAY_DATE":null,"MEAN_ELEMENT_THEORY":"SGP4","TLE_LINE2":"2 52344  53.2148 342.0867 0001067  84.1717  73.2767 15.73197768  1305","OBJECT_TYPE":"PAYLOAD"},{"RCS_SIZE":"LARGE","NORAD_CAT_ID":"52345","COUNTRY_CODE":"US","CLASSIFICATION_TYPE":"U","PERIOD":"91.534","CENTER_NAME":"EARTH","MEAN_ANOMALY":"64.7543","ECCENTRICITY":"0.00009150","SEMIMAJOR_AXIS":"6727.924","MEAN_MOTION":"15.73189742","TIME_SYSTEM":"UTC","ELEMENT_SET_NO":"999","ARG_OF_PERICENTER":"89.6982","INCLINATION":"53.2132","MEAN_MOTION_DDOT":"0.0000000000000","BSTAR":"-0.00037668000000","OBJECT_NAME":"STARLINK-3852","OBJECT_ID":"2022-045Q","LAUNCH_DATE":"2022-04-29","REV_AT_EPOCH":"130","RA_OF_ASC_NODE":"342.0931","GP_ID":"203908757","REF_FRAME":"TEME","MEAN_MOTION_DOT":"-0.00053126","EPHEMERIS_TYPE":"0","FILE":"3452356","DECAY_DATE":null,"PERIAPSIS":"349.174","APOAPSIS":"350.405","SITE":"AFETR","TLE_LINE1":"1 52345U 22045Q   22138.91667824 -.00053126  00000-0 -37668-3 0  9993","EPOCH":"2022-05-18T22:00:00.999936","OBJECT_TYPE":"PAYLOAD","TLE_LINE2":"2 52345  53.2132 342.0931 0000915  89.6982  64.7543 15.73189742  1306","MEAN_ELEMENT_THEORY":"SGP4"},{"LAUNCH_DATE":"2022-04-29","OBJECT_ID":"2022-045R","REV_AT_EPOCH":"130","GP_ID":"203908174","RA_OF_ASC_NODE":"342.0858","EPHEMERIS_TYPE":"0","FILE":"3452356","MEAN_MOTION_DOT":"-0.00058350","REF_FRAME":"TEME","APOAPSIS":"350.438","DECAY_DATE":null,"PERIAPSIS":"349.117","TLE_LINE1":"1 52346U 22045R   22138.91667824 -.00058350  00000-0 -41434-3 0  9994","EPOCH":"2022-05-18T22:00:00.999936","SITE":"AFETR","OBJECT_TYPE":"PAYLOAD","MEAN_ELEMENT_THEORY":"SGP4","TLE_LINE2":"2 52346  53.2146 342.0858 0000982  80.6758  77.3665 15.73193954  1301","RCS_SIZE":"LARGE","NORAD_CAT_ID":"52346","CENTER_NAME":"EARTH","PERIOD":"91.534","COUNTRY_CODE":"US","CLASSIFICATION_TYPE":"U","MEAN_ANOMALY":"77.3665","ECCENTRICITY":"0.00009820","SEMIMAJOR_AXIS":"6727.912","MEAN_MOTION":"15.73193954","TIME_SYSTEM":"UTC","INCLINATION":"53.2146","ELEMENT_SET_NO":"999","ARG_OF_PERICENTER":"80.6758","BSTAR":"-0.00041434000000","MEAN_MOTION_DDOT":"0.0000000000000","OBJECT_NAME":"STARLINK-3812"},{"TLE_LINE2":"2 52347  53.2149 342.0909 0001177  74.1347  81.5139 15.73198405  1300","MEAN_ELEMENT_THEORY":"SGP4","OBJECT_TYPE":"PAYLOAD","SITE":"AFETR","TLE_LINE1":"1 52347U 22045S   22138.91667824 -.00052784  00000-0 -37406-3 0  9994","EPOCH":"2022-05-18T22:00:00.999936","DECAY_DATE":null,"PERIAPSIS":"348.973","APOAPSIS":"350.557","REF_FRAME":"TEME","MEAN_MOTION_DOT":"-0.00052784","FILE":"3452356","EPHEMERIS_TYPE":"0","REV_AT_EPOCH":"130","RA_OF_ASC_NODE":"342.0909","GP_ID":"203908272","OBJECT_ID":"2022-045S","LAUNCH_DATE":"2022-04-29","OBJECT_NAME":"STARLINK-3826","MEAN_MOTION_DDOT":"0.0000000000000","BSTAR":"-0.00037406000000","TIME_SYSTEM":"UTC","ELEMENT_SET_NO":"999","ARG_OF_PERICENTER":"74.1347","INCLINATION":"53.2149","SEMIMAJOR_AXIS":"6727.900","MEAN_MOTION":"15.73198405","MEAN_ANOMALY":"81.5139","ECCENTRICITY":"0.00011770","COUNTRY_CODE":"US","CLASSIFICATION_TYPE":"U","PERIOD":"91.533","CENTER_NAME":"EARTH","RCS_SIZE":"LARGE","NORAD_CAT_ID":"52347"}];
